CCSDS_OMM_VERS = 2.0
CREATION_DATE  = 
ORIGINATOR     = 

OBJECT_NAME    = ISS OBJECT XW
OBJECT_ID      = 1998-067XW
CENTER_NAME    = EARTH
REF_FRAME      = TEME
TIME_SYSTEM    = UTC
MEAN_ELEMENT_THEORY = SGP/SGP4

EPOCH          = 2026-02-16T20:01:24.682080
MEAN_MOTION    = 15.63344372
ECCENTRICITY   = .0002625
INCLINATION    = 51.6264
RA_OF_ASC_NODE = 171.3860
ARG_OF_PERICENTER = 344.5571
MEAN_ANOMALY   = 15.5343

EPHEMERIS_TYPE = 0
CLASSIFICATION_TYPE = U
NORAD_CAT_ID   = 66910
ELEMENT_SET_NO = 999
REV_AT_EPOCH   = 1191
BSTAR          = .11638478E-2
MEAN_MOTION_DOT = .11017E-2
MEAN_MOTION_DDOT = 0

CCSDS_OMM_VERS = 2.0
CREATION_DATE  = 
ORIGINATOR     = 

OBJECT_NAME    = ISS OBJECT XX
OBJECT_ID      = 1998-067XX
CENTER_NAME    = EARTH
REF_FRAME      = TEME
TIME_SYSTEM    = UTC
MEAN_ELEMENT_THEORY = SGP/SGP4

EPOCH          = 2026-02-16T23:08:58.759872
MEAN_MOTION    = 15.66886650
ECCENTRICITY   = .00045818
INCLINATION    = 51.6244
RA_OF_ASC_NODE = 170.0024
ARG_OF_PERICENTER = 336.8957
MEAN_ANOMALY   = 23.1833

EPHEMERIS_TYPE = 0
CLASSIFICATION_TYPE = U
NORAD_CAT_ID   = 66911
ELEMENT_SET_NO = 999
REV_AT_EPOCH   = 1193
BSTAR          = .15799286E-2
MEAN_MOTION_DOT = .173906E-2
MEAN_MOTION_DDOT = 0

CCSDS_OMM_VERS = 2.0
CREATION_DATE  = 
ORIGINATOR     = 

OBJECT_NAME    = ISS OBJECT XY
OBJECT_ID      = 1998-067XY
CENTER_NAME    = EARTH
REF_FRAME      = TEME
TIME_SYSTEM    = UTC
MEAN_ELEMENT_THEORY = SGP/SGP4

EPOCH          = 2026-02-16T14:13:34.236768
MEAN_MOTION    = 15.59991807
ECCENTRICITY   = .0000861
INCLINATION    = 51.6285
RA_OF_ASC_NODE = 173.5323
ARG_OF_PERICENTER = 347.6773
MEAN_ANOMALY   = 12.4199

EPHEMERIS_TYPE = 0
CLASSIFICATION_TYPE = U
NORAD_CAT_ID   = 66912
ELEMENT_SET_NO = 999
REV_AT_EPOCH   = 1185
BSTAR          = .94754E-3
MEAN_MOTION_DOT = .78325E-3
MEAN_MOTION_DDOT = 0

CCSDS_OMM_VERS = 2.0
CREATION_DATE  = 
ORIGINATOR     = 

OBJECT_NAME    = ISS OBJECT XZ
OBJECT_ID      = 1998-067XZ
CENTER_NAME    = EARTH
REF_FRAME      = TEME
TIME_SYSTEM    = UTC
MEAN_ELEMENT_THEORY = SGP/SGP4

EPOCH          = 2026-02-16T15:46:41.061216
MEAN_MOTION    = 15.50110674
ECCENTRICITY   = .00104539
INCLINATION    = 51.6311
RA_OF_ASC_NODE = 176.2115
ARG_OF_PERICENTER = 117.3582
MEAN_ANOMALY   = 242.8472

EPHEMERIS_TYPE = 0
CLASSIFICATION_TYPE = U
NORAD_CAT_ID   = 67683
ELEMENT_SET_NO = 999
REV_AT_EPOCH   = 152
BSTAR          = .68493875E-3
MEAN_MOTION_DOT = .39055E-3
MEAN_MOTION_DDOT = 0

CCSDS_OMM_VERS = 2.0
CREATION_DATE  = 
ORIGINATOR     = 

OBJECT_NAME    = GXIBA-1
OBJECT_ID      = 1998-067YA
CENTER_NAME    = EARTH
REF_FRAME      = TEME
TIME_SYSTEM    = UTC
MEAN_ELEMENT_THEORY = SGP/SGP4

EPOCH          = 2026-02-16T15:40:00.848640
MEAN_MOTION    = 15.51081436
ECCENTRICITY   = .00121024
INCLINATION    = 51.6308
RA_OF_ASC_NODE = 176.1816
ARG_OF_PERICENTER = 110.9325
MEAN_ANOMALY   = 249.2961

EPHEMERIS_TYPE = 0
CLASSIFICATION_TYPE = U
NORAD_CAT_ID   = 67684
ELEMENT_SET_NO = 999
REV_AT_EPOCH   = 152
BSTAR          = .12496488E-2
MEAN_MOTION_DOT = .74552E-3
MEAN_MOTION_DDOT = 0

CCSDS_OMM_VERS = 2.0
CREATION_DATE  = 
ORIGINATOR     = 

OBJECT_NAME    = CORAL
OBJECT_ID      = 1998-067YB
CENTER_NAME    = EARTH
REF_FRAME      = TEME
TIME_SYSTEM    = UTC
MEAN_ELEMENT_THEORY = SGP/SGP4

EPOCH          = 2026-02-16T15:45:23.142240
MEAN_MOTION    = 15.50278727
ECCENTRICITY   = .00123961
INCLINATION    = 51.6312
RA_OF_ASC_NODE = 176.2061
ARG_OF_PERICENTER = 113.0551
MEAN_ANOMALY   = 247.1746

EPHEMERIS_TYPE = 0
CLASSIFICATION_TYPE = U
NORAD_CAT_ID   = 67685
ELEMENT_SET_NO = 999
REV_AT_EPOCH   = 152
BSTAR          = .77476978E-3
MEAN_MOTION_DOT = .44575E-3
MEAN_MOTION_DDOT = 0

CCSDS_OMM_VERS = 2.0
CREATION_DATE  = 
ORIGINATOR     = 

OBJECT_NAME    = ISS OBJECT YC
OBJECT_ID      = 1998-067YC
CENTER_NAME    = EARTH
REF_FRAME      = TEME
TIME_SYSTEM    = UTC
MEAN_ELEMENT_THEORY = SGP/SGP4

EPOCH          = 2026-02-16T14:11:22.659936
MEAN_MOTION    = 15.50464751
ECCENTRICITY   = .0007796
INCLINATION    = 51.6314
RA_OF_ASC_NODE = 176.5206
ARG_OF_PERICENTER = 86.2899
MEAN_ANOMALY   = 273.8981

EPHEMERIS_TYPE = 0
CLASSIFICATION_TYPE = U
NORAD_CAT_ID   = 67686
ELEMENT_SET_NO = 999
REV_AT_EPOCH   = 151
BSTAR          = .9042E-3
MEAN_MOTION_DOT = .52403E-3
MEAN_MOTION_DDOT = 0

CCSDS_OMM_VERS = 2.0
CREATION_DATE  = 
ORIGINATOR     = 

OBJECT_NAME    = LEOPARD
OBJECT_ID      = 1998-067YD
CENTER_NAME    = EARTH
REF_FRAME      = TEME
TIME_SYSTEM    = UTC
MEAN_ELEMENT_THEORY = SGP/SGP4

EPOCH          = 2026-02-16T15:45:55.393632
MEAN_MOTION    = 15.50209521
ECCENTRICITY   = .00078397
INCLINATION    = 51.6316
RA_OF_ASC_NODE = 176.2085
ARG_OF_PERICENTER = 89.2385
MEAN_ANOMALY   = 270.9502

EPHEMERIS_TYPE = 0
CLASSIFICATION_TYPE = U
NORAD_CAT_ID   = 67687
ELEMENT_SET_NO = 999
REV_AT_EPOCH   = 144
BSTAR          = .76465348E-3
MEAN_MOTION_DOT = .43795E-3
MEAN_MOTION_DDOT = 0

CCSDS_OMM_VERS = 2.0
CREATION_DATE  = 
ORIGINATOR     = 

OBJECT_NAME    = ISS OBJECT YE
OBJECT_ID      = 1998-067YE
CENTER_NAME    = EARTH
REF_FRAME      = TEME
TIME_SYSTEM    = UTC
MEAN_ELEMENT_THEORY = SGP/SGP4

EPOCH          = 2026-02-16T15:44:38.329152
MEAN_MOTION    = 15.50385572
ECCENTRICITY   = .0007765
INCLINATION    = 51.6315
RA_OF_ASC_NODE = 176.2033
ARG_OF_PERICENTER = 86.9328
MEAN_ANOMALY   = 273.2550

EPHEMERIS_TYPE = 0
CLASSIFICATION_TYPE = U
NORAD_CAT_ID   = 67688
ELEMENT_SET_NO = 999
REV_AT_EPOCH   = 144
BSTAR          = .8359149E-3
MEAN_MOTION_DOT = .48248E-3
MEAN_MOTION_DDOT = 0

CCSDS_OMM_VERS = 2.0
CREATION_DATE  = 
ORIGINATOR     = 

OBJECT_NAME    = CREW DRAGON 12
OBJECT_ID      = 2026-031A
CENTER_NAME    = EARTH
REF_FRAME      = TEME
TIME_SYSTEM    = UTC
MEAN_ELEMENT_THEORY = SGP/SGP4

EPOCH          = 2026-02-17T04:23:19.361472
MEAN_MOTION    = 15.48657976
ECCENTRICITY   = .00110184
INCLINATION    = 51.6319
RA_OF_ASC_NODE = 173.7204
ARG_OF_PERICENTER = 107.0393
MEAN_ANOMALY   = 253.1803

EPHEMERIS_TYPE = 0
CLASSIFICATION_TYPE = U
NORAD_CAT_ID   = 67796
ELEMENT_SET_NO = 999
REV_AT_EPOCH   = 57
BSTAR          = .18517944E-3
MEAN_MOTION_DOT = .966E-4
MEAN_MOTION_DDOT = 0

